{"fetched_at":"2026-07-14T06:34:59.136Z","source":"https://celestrak.org/NORAD/elements/gp.php?NAME=PLEIADES&FORMAT=JSON","constellation":"pleiades-neo","records":[{"OBJECT_NAME":"PLEIADES NEO 3","OBJECT_ID":"2021-034A","EPOCH":"2026-07-13T20:39:44.446176","CLASSIFICATION_TYPE":"U","MEAN_MOTION":14.81667394,"ECCENTRICITY":0.0001366,"INCLINATION":97.8946,"RA_OF_ASC_NODE":269.2435,"ARG_OF_PERICENTER":89.8794,"MEAN_ANOMALY":270.2575,"EPHEMERIS_TYPE":0,"NORAD_CAT_ID":48268,"ELEMENT_SET_NO":999,"REV_AT_EPOCH":28160,"BSTAR":-0.00015414,"MEAN_MOTION_DOT":-0.00001265,"MEAN_MOTION_DDOT":0},{"OBJECT_NAME":"PLEIADES NEO 4","OBJECT_ID":"2021-073E","EPOCH":"2026-07-13T19:51:07.055136","CLASSIFICATION_TYPE":"U","MEAN_MOTION":14.8166996,"ECCENTRICITY":0.0001319,"INCLINATION":97.8943,"RA_OF_ASC_NODE":269.2064,"ARG_OF_PERICENTER":93.5942,"MEAN_ANOMALY":266.5422,"EPHEMERIS_TYPE":0,"NORAD_CAT_ID":49070,"ELEMENT_SET_NO":999,"REV_AT_EPOCH":26531,"BSTAR":0.000063442,"MEAN_MOTION_DOT":0.00000447,"MEAN_MOTION_DDOT":0}]}
